[{"OBJECT_NAME":"STARLINK-34861","OBJECT_ID":"2025-254W","EPOCH":"2026-03-09T17:31:27.825024","MEAN_MOTION":15.30208665,"ECCENTRICITY":9.28e-5,"INCLINATION":53.1574,"RA_OF_ASC_NODE":229.9647,"ARG_OF_PERICENTER":64.8458,"MEAN_ANOMALY":295.2639,"EPHEMERIS_TYPE":0,"CLASSIFICATION_TYPE":"U","NORAD_CAT_ID":66368,"ELEMENT_SET_NO":999,"REV_AT_EPOCH":1901,"BSTAR":0.0010224097,"MEAN_MOTION_DOT":0.00030052,"MEAN_MOTION_DDOT":0},{"OBJECT_NAME":"COSMOS 2251 DEB","OBJECT_ID":"1993-036BXP","EPOCH":"2026-03-04T07:23:49.847712","MEAN_MOTION":15.24789556,"ECCENTRICITY":0.00190834,"INCLINATION":73.9759,"RA_OF_ASC_NODE":64.3004,"ARG_OF_PERICENTER":239.4537,"MEAN_ANOMALY":120.4779,"EPHEMERIS_TYPE":0,"CLASSIFICATION_TYPE":"U","NORAD_CAT_ID":47059,"ELEMENT_SET_NO":999,"REV_AT_EPOCH":9543,"BSTAR":0.0048704033,"MEAN_MOTION_DOT":0.00123422,"MEAN_MOTION_DDOT":0}]
